      2.10          N: GNSS NAV DATA                        RINEX VERSION / TYPE
fic2rin                                 06/22/2021 00:17:12 PGM / RUN BY / DATE
                                                            END OF HEADER
32 21  6 21  2  0  0.0 1.769419759512e-05-1.477928890381e-12 0.000000000000e+00
    2.900000000000e+01-3.934375000000e+01 5.047710257393e-09 2.729372271619e+00
   -2.110376954079e-06 5.016254959628e-03 6.821006536484e-06 5.153675889969e+03
    9.360000000000e+04-3.725290298462e-09-1.859586980816e+00-9.313225746155e-08
    9.569394121847e-01 2.445312500000e+02-2.358647698481e+00-8.173911904812e-09
   -4.293035965037e-10 1.000000000000e+00 2.163000000000e+03 0.000000000000e+00
    3.400000000000e+00 0.000000000000e+00 4.656612873077e-10 2.900000000000e+01
    8.640000000000e+04 4.000000000000e+00
25 21  6 21  2  0  0.0 1.596012152731e-04 6.821210263297e-12 0.000000000000e+00
    2.800000000000e+01 1.133437500000e+02 4.533403120151e-09-1.786478281785e+00
    5.908310413361e-06 9.854504722171e-03 4.701316356659e-06 5.153614383698e+03
    9.360000000000e+04 1.862645149231e-07 2.395602495488e-01-1.713633537292e-07
    9.609967247767e-01 2.905937500000e+02 9.710566038339e-01-8.194984211129e-09
    2.007226466182e-10 1.000000000000e+00 2.163000000000e+03 0.000000000000e+00
    2.400000000000e+00 0.000000000000e+00 5.587935447693e-09 2.800000000000e+01
    8.640000000000e+04 4.000000000000e+00
24 21  6 21  2  0  0.0 1.417296007276e-04 1.728039933369e-11 0.000000000000e+00
    2.900000000000e+01 4.846875000000e+01 5.031281001620e-09 1.724926429309e-01
    2.611428499222e-06 1.115867902990e-02 1.171976327896e-05 5.153733598709e+03
    9.360000000000e+04 1.117587089539e-08-8.756706058470e-01 1.527369022369e-07
    9.349154409008e-01 1.369375000000e+02 7.408212340408e-01-8.382134863848e-09
   -4.543046378974e-10 1.000000000000e+00 2.163000000000e+03 0.000000000000e+00
    2.400000000000e+00 0.000000000000e+00 2.793967723846e-09 2.900000000000e+01
    8.640000000000e+04 4.000000000000e+00
27 21  6 21  2  0  0.0-1.504900865257e-04-6.139089236967e-12 0.000000000000e+00
    9.300000000000e+01-6.634375000000e+01 4.286964283556e-09 1.976184496588e+00
   -3.529712557793e-06 9.451798512600e-03 3.218650817871e-06 5.153684984207e+03
    9.360000000000e+04-9.313225746155e-08 1.288786956384e+00-3.911554813385e-08
    9.755328829974e-01 3.270312500000e+02 6.347382254520e-01-8.285345117881e-09
   -2.642967233051e-10 1.000000000000e+00 2.163000000000e+03 0.000000000000e+00
    3.400000000000e+00 0.000000000000e+00 1.862645149231e-09 9.300000000000e+01
    8.640000000000e+04 4.000000000000e+00
22 21  6 21  2  0  0.0-5.832640454173e-04 9.663381206337e-12 0.000000000000e+00
    6.200000000000e+01 1.790625000000e+01 5.412011146273e-09 1.002615032518e+00
    9.387731552124e-07 6.998942699283e-03 7.851049304008e-06 5.153801584244e+03
    9.360000000000e+04 5.960464477539e-08-2.999620286842e+00-1.974403858185e-07
    9.355410929274e-01 2.171875000000e+02-9.368344646530e-01-8.446423256003e-09
    6.210972997670e-10 1.000000000000e+00 2.163000000000e+03 0.000000000000e+00
    2.400000000000e+00 0.000000000000e+00-1.769512891769e-08 6.200000000000e+01
    8.640000000000e+04 4.000000000000e+00
13 21  6 21  2  0  0.0 1.475373283029e-04 4.888534022029e-12 0.000000000000e+00
    8.700000000000e+01-2.959375000000e+01 4.788056584633e-09 1.469492433115e+00
   -1.532956957817e-06 5.034274654463e-03 8.009374141693e-06 5.153676410675e+03
    9.360000000000e+04-1.583248376846e-07-1.720644330577e+00 9.872019290924e-08
    9.677043387586e-01 2.300312500000e+02 9.587251992099e-01-8.114266563201e-09
   -4.153744448700e-10 1.000000000000e+00 2.163000000000e+03 0.000000000000e+00
    2.400000000000e+00 0.000000000000e+00-1.117587089539e-08 8.700000000000e+01
    8.640000000000e+04 4.000000000000e+00
21 21  6 21  2  0  0.0 1.263641752303e-04 2.501110429876e-12 0.000000000000e+00
    5.900000000000e+01-9.575000000000e+01 4.305536485734e-09 2.167625528887e+00
   -4.872679710388e-06 2.401977078989e-02 9.560957551003e-06 5.153676502228e+03
    9.360000000000e+04 3.445893526077e-07 2.262551989195e+00 6.146728992462e-08
    9.575015984363e-01 1.925000000000e+02-1.123739260091e+00-7.576744173236e-09
   -6.285976121851e-11 1.000000000000e+00 2.163000000000e+03 0.000000000000e+00
    3.400000000000e+00 0.000000000000e+00-1.024454832077e-08 5.900000000000e+01
    8.640000000000e+04 4.000000000000e+00
17 21  6 21  2  0  0.0 4.617166705430e-04 6.025402399246e-12 0.000000000000e+00
    3.100000000000e+01-6.575000000000e+01 3.913734451321e-09 2.038670166247e+00
   -3.520399332047e-06 1.334198191762e-02 3.764405846596e-06 5.153618265152e+03
    9.360000000000e+04 1.881271600723e-07 1.349697474352e+00-1.564621925354e-07
    9.817424757776e-01 3.149062500000e+02-1.565344745017e+00-7.911758127912e-09
   -1.992940156814e-10 1.000000000000e+00 2.163000000000e+03 0.000000000000e+00
    3.400000000000e+00 0.000000000000e+00-1.117587089539e-08 3.100000000000e+01
    8.640000000000e+04 4.000000000000e+00
19 21  6 21  2  0  0.0 1.608440652490e-05 5.002220859751e-12 0.000000000000e+00
    1.050000000000e+02-6.868750000000e+01 4.063383541949e-09-1.801106928613e+00
   -3.200024366379e-06 9.329351596534e-03 4.684552550316e-06 5.153637742996e+03
    9.360000000000e+04-7.636845111847e-08 1.394852072022e+00 2.086162567139e-07
    9.802860559804e-01 2.971562500000e+02 1.864770588186e+00-8.071407635097e-09
   -1.753644474903e-10 1.000000000000e+00 2.163000000000e+03 0.000000000000e+00
    3.400000000000e+00 0.000000000000e+00-1.536682248116e-08 1.050000000000e+02
    8.640000000000e+04 4.000000000000e+00
26 21  6 21  2  0  0.0 1.009777188301e-04 4.774847184308e-12 0.000000000000e+00
    7.500000000000e+01 1.205000000000e+02 4.942348725805e-09-2.469236901445e+00
    6.228685379028e-06 5.907385493629e-03 5.282461643219e-06 5.153581514359e+03
    9.360000000000e+04-5.215406417847e-08 1.970565369729e-01-8.940696716309e-08
    9.419197668534e-01 2.680312500000e+02 3.044973281074e-01-8.452494937485e-09
    2.557249376844e-10 1.000000000000e+00 2.163000000000e+03 0.000000000000e+00
    3.400000000000e+00 0.000000000000e+00 6.984919309616e-09 7.500000000000e+01
    8.640000000000e+04 4.000000000000e+00
20 21  6 21  2  0  0.0 5.209632217884e-04-3.410605131648e-13 0.000000000000e+00
    6.500000000000e+01 1.712500000000e+01 5.361651905752e-09 5.270332795887e-01
    9.536743164062e-07 6.087902816944e-03 7.934868335724e-06 5.151736803055e+03
    9.360000000000e+04 1.378357410431e-07-3.045955062952e+00 2.048909664154e-08
    9.388474735771e-01 2.176875000000e+02 3.039477105164e+00-8.470709981929e-09
    6.078824636017e-10 1.000000000000e+00 2.163000000000e+03 0.000000000000e+00
    2.400000000000e+00 0.000000000000e+00-8.381903171539e-09 6.500000000000e+01
    8.640000000000e+04 4.000000000000e+00
18 21  6 21  2  0  0.0 3.456999547780e-04-1.932676241267e-12 0.000000000000e+00
    1.100000000000e+01-7.450000000000e+01 4.041596920163e-09 1.369363795156e-01
   -3.777444362640e-06 1.545684295706e-03 1.182965934277e-05 5.153664424896e+03
    9.360000000000e+04 2.235174179077e-08 2.358328856949e+00 2.421438694000e-08
    9.684789114569e-01 1.537187500000e+02 2.888775421389e+00-7.836040688262e-09
    2.660825119761e-10 1.000000000000e+00 2.163000000000e+03 0.000000000000e+00
    2.400000000000e+00 0.000000000000e+00-8.381903171539e-09 2.670000000000e+02
    8.640000000000e+04 4.000000000000e+00
23 21  6 21  2  0  0.0 9.446730837226e-05-4.433786671143e-12 0.000000000000e+00
    2.500000000000e+01 1.525000000000e+01 4.762341227771e-09-5.836671847667e-01
    8.028000593185e-07 1.304795499891e-03 7.828697562218e-06 5.153650432587e+03
    9.360000000000e+04 2.980232238770e-08-2.925773814817e+00 1.303851604462e-08
    9.647795573640e-01 2.300625000000e+02 2.609668113255e+00-8.133910238582e-09
    6.135969873489e-10 1.000000000000e+00 2.163000000000e+03 0.000000000000e+00
    2.400000000000e+00 0.000000000000e+00-8.381903171539e-09 5.370000000000e+02
    8.640000000000e+04 4.000000000000e+00
14 21  6 21  2  0  0.0 6.494531407952e-05-7.844391802792e-12 0.000000000000e+00
    1.560000000000e+02 9.818750000000e+01 4.557689846076e-09-1.343895789945e+00
    5.150213837624e-06 8.051710901782e-04 4.632398486137e-06 5.153754568100e+03
    9.360000000000e+04-7.450580596924e-08 2.858117051590e-01 2.980232238770e-08
    9.570984255283e-01 2.898750000000e+02 2.848495257981e+00-8.257843972348e-09
    1.482204596914e-10 1.000000000000e+00 2.163000000000e+03 0.000000000000e+00
    2.400000000000e+00 0.000000000000e+00-7.916241884232e-09 9.240000000000e+02
    8.640000000000e+04 4.000000000000e+00
28 21  6 21  2  0  0.0 5.511762574315e-04-6.366462912410e-12 0.000000000000e+00
    6.100000000000e+01 1.002187500000e+02 4.153387290966e-09 2.562428911450e+00
    5.174428224564e-06 1.749149942771e-02 3.937631845474e-06 5.153733793259e+03
    9.360000000000e+04 2.067536115646e-07 3.356118635584e-01 4.470348358154e-08
    9.727682896696e-01 3.055312500000e+02-1.345840038794e+00-7.844612473883e-09
    4.571618997710e-11 1.000000000000e+00 2.163000000000e+03 0.000000000000e+00
    4.850000000000e+00 0.000000000000e+00-1.117587089539e-08 6.100000000000e+01
    8.640000000000e+04 4.000000000000e+00
19 21  6 21  1 59 44.0 1.608300954103e-05 5.002220859751e-12 0.000000000000e+00
    3.000000000000e+00-6.868750000000e+01 4.063026384215e-09-1.803440819840e+00
   -3.200024366379e-06 9.329352178611e-03 4.684552550316e-06 5.153637744904e+03
    9.358400000000e+04-7.636845111847e-08 1.394852202222e+00 2.086162567139e-07
    9.802860618321e-01 2.971562500000e+02 1.864770636462e+00-8.071407635097e-09
   -1.757216052245e-10 1.000000000000e+00 2.163000000000e+03 0.000000000000e+00
    2.400000000000e+00 0.000000000000e+00-1.536682248116e-08 3.000000000000e+00
    8.691000000000e+04 4.000000000000e+00
